start=new Date('2023-06-26T00:00:00.000Z').valueOf();
sats=[{"RA_OF_ASC_NODE":"354.4800","ELEMENT_SET_NO":"999","MEAN_MOTION_DDOT":"0.0000000000000","MEAN_ANOMALY":"265.4476","DECAY_DATE":null,"PERIAPSIS":"539.178","ARG_OF_PERICENTER":"94.6612","LAUNCH_DATE":"2021-12-18","SEMIMAJOR_AXIS":"6917.889","TIME_SYSTEM":"UTC","OBJECT_ID":"2021-125AH","FILE":"3942789","TLE_LINE1":"1 50187U 21125AH  23176.67778190  .00001693  00000-0  12440-3 0  9999","NORAD_CAT_ID":"50187","GP_ID":"234553225","CENTER_NAME":"EARTH","MEAN_MOTION_DOT":"0.00001693","REF_FRAME":"TEME","PERIOD":"95.438","COUNTRY_CODE":"US","SITE":"AFWTR","ECCENTRICITY":"0.00008330","MEAN_MOTION":"15.08837117","EPHEMERIS_TYPE":"0","EPOCH":"2023-06-25T16:16:00.356160","MEAN_ELEMENT_THEORY":"SGP4","TLE_LINE2":"2 50187  53.2187 354.4800 0000833  94.6612 265.4476 15.08837117 84495","OBJECT_TYPE":"PAYLOAD","APOAPSIS":"540.330","INCLINATION":"53.2187","BSTAR":"0.00012440000000","OBJECT_NAME":"STARLINK-3272","REV_AT_EPOCH":"8449","RCS_SIZE":"LARGE","CLASSIFICATION_TYPE":"U"},{"OBJECT_NAME":"STARLINK-3275","REV_AT_EPOCH":"8462","BSTAR":"-0.00032023000000","INCLINATION":"53.2270","CLASSIFICATION_TYPE":"U","RCS_SIZE":"LARGE","MEAN_MOTION":"15.20260180","EPHEMERIS_TYPE":"0","COUNTRY_CODE":"US","SITE":"AFWTR","ECCENTRICITY":"0.00006280","REF_FRAME":"TEME","MEAN_MOTION_DOT":"-0.00007352","PERIOD":"94.721","CENTER_NAME":"EARTH","APOAPSIS":"505.489","TLE_LINE2":"2 50188  53.2270 344.8233 0000628 110.8782 249.2282 15.20260180 84627","OBJECT_TYPE":"PAYLOAD","EPOCH":"2023-06-25T16:41:13.542432","MEAN_ELEMENT_THEORY":"SGP4","FILE":"3942789","OBJECT_ID":"2021-125AJ","TIME_SYSTEM":"UTC","SEMIMAJOR_AXIS":"6883.192","GP_ID":"234553234","NORAD_CAT_ID":"50188","TLE_LINE1":"1 50188U 21125AJ  23176.69529563 -.00007352  00000-0 -32023-3 0  9999","MEAN_MOTION_DDOT":"0.0000000000000","ELEMENT_SET_NO":"999","RA_OF_ASC_NODE":"344.8233","LAUNCH_DATE":"2021-12-18","DECAY_DATE":null,"PERIAPSIS":"504.625","ARG_OF_PERICENTER":"110.8782","MEAN_ANOMALY":"249.2282"},{"ELEMENT_SET_NO":"999","MEAN_MOTION_DDOT":"0.0000000000000","RA_OF_ASC_NODE":"6.5355","ARG_OF_PERICENTER":"93.3541","PERIAPSIS":"539.018","DECAY_DATE":null,"LAUNCH_DATE":"2021-12-18","MEAN_ANOMALY":"266.7575","OBJECT_ID":"2021-125AK","FILE":"3942520","SEMIMAJOR_AXIS":"6917.900","TIME_SYSTEM":"UTC","GP_ID":"234546092","NORAD_CAT_ID":"50189","TLE_LINE1":"1 50189U 21125AK  23176.22150134 -.00001010  00000-0 -45415-4 0  9998","SITE":"AFWTR","ECCENTRICITY":"0.00010810","COUNTRY_CODE":"US","EPHEMERIS_TYPE":"0","MEAN_MOTION":"15.08833475","CENTER_NAME":"EARTH","PERIOD":"95.438","MEAN_MOTION_DOT":"-0.00001010","REF_FRAME":"TEME","TLE_LINE2":"2 50189  53.2206   6.5355 0001081  93.3541 266.7575 15.08833475 86895","OBJECT_TYPE":"PAYLOAD","APOAPSIS":"540.513","MEAN_ELEMENT_THEORY":"SGP4","EPOCH":"2023-06-25T05:18:57.715776","REV_AT_EPOCH":"8689","OBJECT_NAME":"STARLINK-3276","INCLINATION":"53.2206","BSTAR":"-0.00004541500000","CLASSIFICATION_TYPE":"U","RCS_SIZE":"LARGE"},{"MEAN_ELEMENT_THEORY":"SGP4","EPOCH":"2023-06-25T04:52:24.439296","OBJECT_TYPE":"PAYLOAD","TLE_LINE2":"2 50190  53.2182 356.6090 0000910  85.3835 274.7261 15.08838495 87026","APOAPSIS":"540.380","CENTER_NAME":"EARTH","PERIOD":"95.438","REF_FRAME":"TEME","MEAN_MOTION_DOT":"-0.00000732","ECCENTRICITY":"0.00009100","SITE":"AFWTR","COUNTRY_CODE":"US","EPHEMERIS_TYPE":"0","MEAN_MOTION":"15.08838495","RCS_SIZE":"LARGE","CLASSIFICATION_TYPE":"U","INCLINATION":"53.2182","BSTAR":"-0.00002794400000","REV_AT_EPOCH":"8702","OBJECT_NAME":"STARLINK-3268","MEAN_ANOMALY":"274.7261","ARG_OF_PERICENTER":"85.3835","PERIAPSIS":"539.120","DECAY_DATE":null,"LAUNCH_DATE":"2021-12-18","RA_OF_ASC_NODE":"356.6090","ELEMENT_SET_NO":"999","MEAN_MOTION_DDOT":"0.0000000000000","TLE_LINE1":"1 50190U 21125AL  23176.20306064 -.00000732  00000-0 -27944-4 0  9990","GP_ID":"234546598","NORAD_CAT_ID":"50190","SEMIMAJOR_AXIS":"6917.885","TIME_SYSTEM":"UTC","OBJECT_ID":"2021-125AL","FILE":"3942520"},{"ELEMENT_SET_NO":"999","MEAN_MOTION_DDOT":"0.0000000000000","RA_OF_ASC_NODE":"20.7273","DECAY_DATE":null,"PERIAPSIS":"539.056","ARG_OF_PERICENTER":"85.4098","LAUNCH_DATE":"2021-12-18","MEAN_ANOMALY":"274.7009","OBJECT_ID":"2021-125AM","FILE":"3941665","SEMIMAJOR_AXIS":"6917.883","TIME_SYSTEM":"UTC","GP_ID":"234525869","NORAD_CAT_ID":"50191","TLE_LINE1":"1 50191U 21125AM  23175.28489714  .00000759  00000-0  65751-4 0  9997","COUNTRY_CODE":"US","ECCENTRICITY":"0.00010000","SITE":"AFWTR","MEAN_MOTION":"15.08839179","EPHEMERIS_TYPE":"0","CENTER_NAME":"EARTH","MEAN_MOTION_DOT":"0.00000759","REF_FRAME":"TEME","PERIOD":"95.438","OBJECT_TYPE":"PAYLOAD","TLE_LINE2":"2 50191  53.2180  20.7273 0001000  85.4098 274.7009 15.08839179 84005","APOAPSIS":"540.440","EPOCH":"2023-06-24T06:50:15.112896","MEAN_ELEMENT_THEORY":"SGP4","OBJECT_NAME":"STARLINK-3273","REV_AT_EPOCH":"8400","INCLINATION":"53.2180","BSTAR":"0.00006575100000","CLASSIFICATION_TYPE":"U","RCS_SIZE":"LARGE"},{"CENTER_NAME":"EARTH","PERIOD":"95.438","REF_FRAME":"TEME","MEAN_MOTION_DOT":"-0.00000321","SITE":"AFWTR","ECCENTRICITY":"0.00009680","COUNTRY_CODE":"US","EPHEMERIS_TYPE":"0","MEAN_MOTION":"15.08839299","MEAN_ELEMENT_THEORY":"SGP4","EPOCH":"2023-06-25T04:47:06.479520","OBJECT_TYPE":"PAYLOAD","TLE_LINE2":"2 50192  53.2183 356.6254 0000968  80.3847 279.7255 15.08839299 84413","APOAPSIS":"540.417","BSTAR":"-0.00000212120000","INCLINATION":"53.2183","REV_AT_EPOCH":"8441","OBJECT_NAME":"STARLINK-3259","RCS_SIZE":"LARGE","CLASSIFICATION_TYPE":"U","RA_OF_ASC_NODE":"356.6254","ELEMENT_SET_NO":"999","MEAN_MOTION_DDOT":"0.0000000000000","MEAN_ANOMALY":"279.7255","ARG_OF_PERICENTER":"80.3847","DECAY_DATE":null,"PERIAPSIS":"539.078","LAUNCH_DATE":"2021-12-18","SEMIMAJOR_AXIS":"6917.883","TIME_SYSTEM":"UTC","OBJECT_ID":"2021-125AN","FILE":"3942520","TLE_LINE1":"1 50192U 21125AN  23176.19938055 -.00000321  00000-0 -21212-5 0  9998","NORAD_CAT_ID":"50192","GP_ID":"234546093"},{"FILE":"3942519","OBJECT_ID":"2021-125AP","TIME_SYSTEM":"UTC","SEMIMAJOR_AXIS":"6917.897","NORAD_CAT_ID":"50193","GP_ID":"234546078","TLE_LINE1":"1 50193U 21125AP  23176.47538495  .00001007  00000-0  81349-4 0  9990","MEAN_MOTION_DDOT":"0.0000000000000","ELEMENT_SET_NO":"999","RA_OF_ASC_NODE":"355.3886","LAUNCH_DATE":"2021-12-18","DECAY_DATE":null,"PERIAPSIS":"539.144","ARG_OF_PERICENTER":"87.6776","MEAN_ANOMALY":"272.4319","OBJECT_NAME":"STARLINK-3261","REV_AT_EPOCH":"8706","INCLINATION":"53.2185","BSTAR":"0.00008134900000","CLASSIFICATION_TYPE":"U","RCS_SIZE":"LARGE","MEAN_MOTION":"15.08834684","EPHEMERIS_TYPE":"0","COUNTRY_CODE":"US","SITE":"AFWTR","ECCENTRICITY":"0.00008930","MEAN_MOTION_DOT":"0.00001007","REF_FRAME":"TEME","PERIOD":"95.438","CENTER_NAME":"EARTH","APOAPSIS":"540.379","OBJECT_TYPE":"PAYLOAD","TLE_LINE2":"2 50193  53.2185 355.3886 0000893  87.6776 272.4319 15.08834684 87069","EPOCH":"2023-06-25T11:24:33.259680","MEAN_ELEMENT_THEORY":"SGP4"},{"TIME_SYSTEM":"UTC","SEMIMAJOR_AXIS":"6917.892","FILE":"3941921","OBJECT_ID":"2021-125AQ","TLE_LINE1":"1 50194U 21125AQ  23175.66673659  .00000235  00000-0  32858-4 0  9996","GP_ID":"234532046","NORAD_CAT_ID":"50194","RA_OF_ASC_NODE":"359.0284","MEAN_MOTION_DDOT":"0.0000000000000","ELEMENT_SET_NO":"999","MEAN_ANOMALY":"264.7443","LAUNCH_DATE":"2021-12-18","PERIAPSIS":"539.267","DECAY_DATE":null,"ARG_OF_PERICENTER":"95.3630","INCLINATION":"53.2194","BSTAR":"0.00003285800000","OBJECT_NAME":"STARLINK-3269","REV_AT_EPOCH":"8694","RCS_SIZE":"LARGE","CLASSIFICATION_TYPE":"U","MEAN_MOTION_DOT":"0.00000235","REF_FRAME":"TEME","PERIOD":"95.438","CENTER_NAME":"EARTH","MEAN_MOTION":"15.08836111","EPHEMERIS_TYPE":"0","COUNTRY_CODE":"US","SITE":"AFWTR","ECCENTRICITY":"0.00007090","EPOCH":"2023-06-24T16:00:06.041376","MEAN_ELEMENT_THEORY":"SGP4","APOAPSIS":"540.248","OBJECT_TYPE":"PAYLOAD","TLE_LINE2":"2 50194  53.2194 359.0284 0000709  95.3630 264.7443 15.08836111 86949"},{"OBJECT_ID":"2021-125AR","FILE":"3942520","SEMIMAJOR_AXIS":"6917.891","TIME_SYSTEM":"UTC","NORAD_CAT_ID":"50195","GP_ID":"234546099","TLE_LINE1":"1 50195U 21125AR  23176.47170081 -.00000442  00000-0 -96798-5 0  9994","ELEMENT_SET_NO":"999","MEAN_MOTION_DDOT":"0.0000000000000","RA_OF_ASC_NODE":"355.4066","ARG_OF_PERICENTER":"96.8787","DECAY_DATE":null,"PERIAPSIS":"539.018","LAUNCH_DATE":"2021-12-18","MEAN_ANOMALY":"263.2327","REV_AT_EPOCH":"8706","OBJECT_NAME":"STARLINK-3266","INCLINATION":"53.2181","BSTAR":"-0.00000967980000","CLASSIFICATION_TYPE":"U","RCS_SIZE":"LARGE","SITE":"AFWTR","ECCENTRICITY":"0.00010670","COUNTRY_CODE":"US","EPHEMERIS_TYPE":"0","MEAN_MOTION":"15.08836510","CENTER_NAME":"EARTH","PERIOD":"95.438","MEAN_MOTION_DOT":"-0.00000442","REF_FRAME":"TEME","OBJECT_TYPE":"PAYLOAD","TLE_LINE2":"2 50195  53.2181 355.4066 0001067  96.8787 263.2327 15.08836510 87063","APOAPSIS":"540.494","MEAN_ELEMENT_THEORY":"SGP4","EPOCH":"2023-06-25T11:19:14.949984"},{"MEAN_ELEMENT_THEORY":"SGP4","EPOCH":"2023-06-25T04:37:53.502240","OBJECT_TYPE":"PAYLOAD","TLE_LINE2":"2 50196  53.2176 356.7046 0000909  86.8247 273.2849 15.08839702 87026","APOAPSIS":"540.375","CENTER_NAME":"EARTH","PERIOD":"95.438","MEAN_MOTION_DOT":"-0.00000481","REF_FRAME":"TEME","ECCENTRICITY":"0.00009090","SITE":"AFWTR","COUNTRY_CODE":"US","EPHEMERIS_TYPE":"0","MEAN_MOTION":"15.08839702","RCS_SIZE":"LARGE","CLASSIFICATION_TYPE":"U","INCLINATION":"53.2176","BSTAR":"-0.00001216700000","REV_AT_EPOCH":"8702","OBJECT_NAME":"STARLINK-3263","MEAN_ANOMALY":"273.2849","ARG_OF_PERICENTER":"86.8247","DECAY_DATE":null,"PERIAPSIS":"539.117","LAUNCH_DATE":"2021-12-18","RA_OF_ASC_NODE":"356.7046","ELEMENT_SET_NO":"999","MEAN_MOTION_DDOT":"0.0000000000000","TLE_LINE1":"1 50196U 21125AS  23176.19298035 -.00000481  00000-0 -12167-4 0  9994","GP_ID":"234546094","NORAD_CAT_ID":"50196","SEMIMAJOR_AXIS":"6917.881","TIME_SYSTEM":"UTC","OBJECT_ID":"2021-125AS","FILE":"3942520"}];
